IRIDIUM 144             
1 43249U 18030A   25360.97212018  .00000099  00000+0  28158-4 0  9995
2 43249  86.3963   2.3937 0002371  90.3835 269.7632 14.34218874405459
IRIDIUM 149             
1 43250U 18030B   25360.55985175  .00000133  00000+0  40434-4 0  9992
2 43250  86.3965   2.5354 0002233  91.0251 269.1201 14.34219003405412
IRIDIUM 157             
1 43251U 18030C   25360.99748947  .00000304  00000+0  10163-3 0  9990
2 43251  86.3967   2.4017 0002110  86.7653 273.3784 14.34219778405457
IRIDIUM 140             
1 43252U 18030D   25360.94675025  .00000165  00000+0  51807-4 0  9998
2 43252  86.3968   2.4360 0002331  91.4187 268.7276 14.34219194405502
IRIDIUM 145             
1 43253U 18030E   25360.93406524  .00000342  00000+0  11523-3 0  9991
2 43253  86.3966   2.4137 0002578  87.7572 272.3919 14.34219807405430
IRIDIUM 146             
1 43254U 18030F   25360.91505138  .00000328  00000+0  11019-3 0  9995
2 43254  86.3966   2.4346 0002392  88.7704 271.3766 14.34218909405447
IRIDIUM 148             
1 43255U 18030G   25360.95309291  .00000064  00000+0  15728-4 0  9991
2 43255  86.3965   2.4588 0002181  87.8189 272.3256 14.34218520405486
IRIDIUM 142             
1 43256U 18030H   25360.99114921  .00000075  00000+0  19728-4 0  9996
2 43256  86.3962   2.3384 0002617  88.0416 272.1080 14.34218568405459
